[Satellite]
VERSION=1.1
NAME=ONEWEB-0500
NICKNAME=ONEWEB-0500
TLE1=1 54118U 22138F   22321.58334491 -.00875652  00000+0 -12490+0 0  9991
TLE2=2 54118  87.4539 208.5505 0010556 183.7597  29.1532 14.79616278  1306
STATUS=0
